DMSP 5D-3 F16 (USA 172) 
1 28054U 03048A   26051.95528078  .00000113  00000+0  82802-4 0  9990
2 28054  99.0008  74.9553 0008155 114.2192   5.8788 14.14455111153056
METEOSAT-9 (MSG-2)      
1 28912U 05049B   26051.61298613  .00000132  00000+0  00000+0 0  9994
2 28912   9.0961  55.2959 0002019 210.8634 150.6872  1.00271498  5837
DMSP 5D-3 F17 (USA 191) 
1 29522U 06050A   26051.91904302  .00000147  00000+0  98516-4 0  9997
2 29522  98.7411  60.8559 0010657  33.7000 326.4849 14.14955599995974
FENGYUN 3A              
1 32958U 08026A   26051.81885100  .00000093  00000+0  64573-4 0  9998
2 32958  98.6779 354.9001 0009798 101.5813 258.6464 14.19540596918893
GOES 14                 
1 35491U 09033A   26051.71647807  .00000140  00000+0  00000+0 0  9994
2 35491   1.3867  84.6082 0001858 288.0645 244.0551  1.00118527  5429
DMSP 5D-3 F18 (USA 210) 
1 35951U 09057A   26051.88115712  .00000243  00000+0  14903-3 0  9999
2 35951  98.8936  32.9701 0010277 217.6938 142.3516 14.14823939843149
EWS-G2 (GOES 15)        
1 36411U 10008A   26051.87034134  .00000018  00000+0  00000+0 0  9995
2 36411   0.9794  85.4135 0001407  35.1695  45.8477  1.00363407 58476
COMS 1                  
1 36744U 10032A   26051.77272609 -.00000338  00000+0  00000+0 0  9997
2 36744   4.5052  77.0511 0000842 256.5263 223.4633  1.00269047 49922
FENGYUN 3B              
1 37214U 10059A   26051.98156663  .00000261  00000+0  15856-3 0  9996
2 37214  98.9796  97.4175 0022545 153.9627 323.5601 14.14813701790995
SUOMI NPP               
1 37849U 11061A   26051.89734011  .00000074  00000+0  56193-4 0  9995
2 37849  98.7850 353.6355 0000930 349.1619  10.9537 14.19538248741940
METEOSAT-10 (MSG-3)     
1 38552U 12035B   26051.88920486  .00000001  00000+0  00000+0 0  9992
2 38552   4.3945  61.5079 0002276 286.8081 122.7125  1.00274807 49695
METOP-B                 
1 38771U 12049A   26051.90316378  .00000094  00000+0  63035-4 0  9996
2 38771  98.6680 105.6360 0001659 347.1368  12.9767 14.21438636696741
INSAT-3D                
1 39216U 13038B   26051.91486587 -.00000333  00000+0  00000+0 0  9996
2 39216   1.6240  84.0942 0002183 227.8301 297.7262  1.00273845 45914
FENGYUN 3C              
1 39260U 13052A   26051.92587005  .00000104  00000+0  73891-4 0  9997
2 39260  98.4864  31.2146 0014756   2.7318 357.3935 14.15722667642112
METEOR-M 2              
1 40069U 14037A   26051.93011053 -.00000042  00000+0  16719-6 0  9996
2 40069  98.5000  31.8609 0006337  24.5282 335.6196 14.21420327602807
HIMAWARI-8              
1 40267U 14060A   26051.91711921 -.00000270  00000+0  00000+0 0  9993
2 40267   0.0150 195.2536 0001023  91.5993 334.7899  1.00273249 41590
FENGYUN 2G              
1 40367U 14090A   26051.90897250 -.00000296  00000+0  00000+0 0  9994
2 40367   5.3424  74.2375 0002017 147.3894 355.8958  1.00279530 40839
METEOSAT-11 (MSG-4)     
1 40732U 15034A   26051.89111154  .00000070  00000+0  00000+0 0  9998
2 40732   2.9090  71.7532 0001171 257.7387 151.6799  1.00272664  6059
ELEKTRO-L 2             
1 41105U 15074A   26051.88634485 -.00000111  00000+0  00000+0 0  9990
2 41105   6.3993  71.9627 0003300 233.3280 150.1229  1.00271438 37345
INSAT-3DR               
1 41752U 16054A   26051.88664556 -.00000071  00000+0  00000+0 0  9994
2 41752   0.0905  91.9520 0013569 187.5051 264.5153  1.00271136 34657
HIMAWARI-9              
1 41836U 16064A   26051.91711921 -.00000269  00000+0  00000+0 0  9990
2 41836   0.0127 160.6452 0001163 191.3050 269.8059  1.00270446 34042
GOES 16                 
1 41866U 16071A   26051.86849145 -.00000085  00000+0  00000+0 0  9991
2 41866   0.1505  92.2206 0002708 206.2937  60.2312  1.00271535 33931
FENGYUN 4A              
1 41882U 16077A   26051.91373919 -.00000351  00000+0  00000+0 0  9998
2 41882   2.0242  81.5960 0006285 130.9779  30.9326  1.00268016 33767
CYGFM05                 
1 41884U 16078A   26051.90852405  .00020338  00000+0  33606-3 0  9990
2 41884  34.9583 307.5825 0005513 127.1509 232.9718 15.51264909510659
CYGFM04                 
1 41885U 16078B   26051.92860303  .00022892  00000+0  33981-3 0  9992
2 41885  34.9326 280.0935 0004921 165.2863 194.8004 15.54209440510858
CYGFM02                 
1 41886U 16078C   26051.91616118  .00025520  00000+0  35182-3 0  9991
2 41886  34.9413 277.4083 0005985 164.9078 195.1825 15.56190719510995
CYGFM01                 
1 41887U 16078D   26051.10394769  .00020863  00000+0  34004-3 0  9995
2 41887  34.9418 314.7502 0005245 106.1798 253.9502 15.51643317510478
CYGFM08                 
1 41888U 16078E   26051.93630701  .00022180  00000+0  34248-3 0  9990
2 41888  34.9438 291.3730 0006791 146.9278 213.1871 15.53121337510849
CYGFM07                 
1 41890U 16078G   26051.91022080  .00022270  00000+0  33573-3 0  9996
2 41890  34.9453 280.1012 0005436 171.5503 188.5313 15.53788013510866
CYGFM03                 
1 41891U 16078H   26051.94490142  .00022240  00000+0  33689-3 0  9993
2 41891  34.9408 281.8444 0004624 152.8563 207.2403 15.53661505510843
FENGYUN 3D              
1 43010U 17072A   26051.93330553 -.00000411  00000+0 -17242-3 0  9996
2 43010  99.0003  24.3346 0002263  43.7023 316.4332 14.19707833428497
NOAA 20 (JPSS-1)        
1 43013U 17073A   26051.91192125  .00000061  00000+0  50002-4 0  9990
2 43013  98.7673 352.4680 0000393 155.7111 204.4084 14.19531228427974
GOES 17                 
1 43226U 18022A   26051.87152479 -.00000177  00000+0  00000+0 0  9991
2 43226   0.6364  87.8532 0002435 211.7088  75.5000  1.00271649 29257
FENGYUN 2H              
1 43491U 18050A   26051.90489161 -.00000121  00000+0  00000+0 0  9990
2 43491   2.7287  80.5190 0001889 168.4139 306.6658  1.00273539 28273
METOP-C                 
1 43689U 18087A   26051.85777374  .00000111  00000+0  70830-4 0  9990
2 43689  98.6803 113.5132 0001983 123.6139 236.5228 14.21491005378304
GEO-KOMPSAT-2A          
1 43823U 18100A   26051.85509609  .00000000  00000+0  00000+0 0  9994
2 43823   0.0138  89.0153 0000965 302.7322 195.1168  1.00270783 26466
METEOR-M2 2             
1 44387U 19038A   26051.91556088  .00000090  00000+0  58733-4 0  9991
2 44387  98.9063  37.5385 0001680  32.7534 327.3748 14.24326781344747
ARKTIKA-M 1             
1 47719U 21016A   26050.85710377 -.00000091  00000+0  00000+0 0  9998
2 47719  63.1975  74.4208 7237773 269.4010  15.2609  2.00622259 36431
FENGYUN 3E              
1 49008U 21062A   26051.93078825 -.00000159  00000+0 -54336-4 0  9999
2 49008  98.7503  56.6327 0002656  71.5323 288.6142 14.19890477240089
GOES 18                 
1 51850U 22021A   26051.75546985  .00000103  00000+0  00000+0 0  9991
2 51850   0.0178  89.0060 0000620 288.6301 268.0019  1.00272537  5420
NOAA 21 (JPSS-2)        
1 54234U 22150A   26051.87632854  .00000080  00000+0  58664-4 0  9995
2 54234  98.7535 352.3371 0002110 136.7944 223.3398 14.19547247170045
METEOSAT-12 (MTG-I1)    
1 54743U 22170C   26051.88911819 -.00000002  00000+0  00000+0 0  9995
2 54743   0.7289  27.3016 0001950 274.1930 169.0417  1.00272463 11815
TIANMU-1 03             
1 55973U 23039A   26051.89769668  .00015105  00000+0  33863-3 0  9996
2 55973  97.5158 221.6595 0003643 149.7211 210.4247 15.43512244162872
TIANMU-1 04             
1 55974U 23039B   26051.92553760  .00015454  00000+0  34177-3 0  9991
2 55974  97.5091 220.8533 0004363 147.4442 212.7076 15.43907781162883
TIANMU-1 05             
1 55975U 23039C   26051.93847300  .00016107  00000+0  36158-3 0  9996
2 55975  97.5138 221.3591 0003200 169.2240 190.9077 15.43457637162869
TIANMU-1 06             
1 55976U 23039D   26051.79605272  .00015122  00000+0  33421-3 0  9997
2 55976  97.5147 221.7371 0003603 165.1627 194.9728 15.43936356162868
FENGYUN 3G              
1 56232U 23055A   26051.97954611  .00028489  00000+0  44582-3 0  9995
2 56232  49.9921 225.2618 0010481 299.5275  60.4647 15.53415845161942
METEOR-M2 3             
1 57166U 23091A   26051.95452778  .00000006  00000+0  21272-4 0  9994
2 57166  98.6252 109.2290 0004726 137.8425 222.3118 14.24035786137977
TIANMU-1 07             
1 57399U 23101A   26051.96375118  .00006593  00000+0  23534-3 0  9996
2 57399  97.2757 105.2807 0004259 170.2943 189.8381 15.29182541143881
TIANMU-1 08             
1 57400U 23101B   26051.93367112  .00006567  00000+0  23445-3 0  9993
2 57400  97.2745 105.0318 0005855 172.6657 187.4670 15.29174091143872
TIANMU-1 09             
1 57401U 23101C   26051.91553927  .00006597  00000+0  23440-3 0  9991
2 57401  97.2703 104.4985 0005172 173.2257 186.9054 15.29330359143876
TIANMU-1 10             
1 57402U 23101D   26051.88461362  .00006488  00000+0  23058-3 0  9993
2 57402  97.2782 105.3925 0006798 178.0544 182.0725 15.29324029143863
FENGYUN 3F              
1 57490U 23111A   26051.91699078  .00000053  00000+0  45413-4 0  9994
2 57490  98.6964 124.0405 0001458  89.3539 270.7804 14.19915154132363
ARKTIKA-M 2             
1 58584U 23198A   26050.11964412  .00000197  00000+0  00000+0 0  9999
2 58584  63.2214 167.4340 6874647 267.8298  18.8537  2.00613262 15953
TIANMU-1 11             
1 58645U 23205A   26051.88550737  .00005412  00000+0  21535-3 0  9997
2 58645  97.3561  75.3109 0010704  61.8403 298.3916 15.25626393119786
TIANMU-1 12             
1 58646U 23205B   26051.91707399  .00005729  00000+0  22848-3 0  9999
2 58646  97.3549  75.1254 0008630  48.9040 311.2942 15.25545237119770
TIANMU-1 13             
1 58647U 23205C   26051.88292472  .00005659  00000+0  22544-3 0  9992
2 58647  97.3576  75.3232 0008424  32.8971 327.2790 15.25592346119765
TIANMU-1 14             
1 58648U 23205D   26051.93283470  .00006002  00000+0  23899-3 0  9994
2 58648  97.3510  74.6564 0009322  35.4713 324.7144 15.25571367119771
TIANMU-1 19             
1 58660U 23208A   26051.91761067  .00008968  00000+0  31666-3 0  9996
2 58660  97.4381 167.8935 0005160  22.3371 337.8093 15.29440678119547
TIANMU-1 20             
1 58661U 23208B   26051.91495375  .00009148  00000+0  31125-3 0  9994
2 58661  97.4320 168.4076 0007519  27.1160 333.0472 15.30632252119624
TIANMU-1 21             
1 58662U 23208C   26051.93510534  .00010466  00000+0  33482-3 0  9995
2 58662  97.4373 170.6397 0007258  21.7670 338.3878 15.32579705119746
TIANMU-1 22             
1 58663U 23208D   26051.93120839  .00008464  00000+0  30232-3 0  9996
2 58663  97.4377 167.9288 0004429  48.5160 311.6460 15.29084546119557
TIANMU-1 15             
1 58700U 24004A   26051.93054856  .00006235  00000+0  24842-3 0  9992
2 58700  97.4658 238.1951 0007961  45.7916 314.3975 15.25559065118044
TIANMU-1 16             
1 58701U 24004B   26051.84879747  .00006210  00000+0  24728-3 0  9993
2 58701  97.4598 237.4489 0006437  50.3090 309.8715 15.25589406118030
TIANMU-1 17             
1 58702U 24004C   26051.96270860  .00006126  00000+0  24371-3 0  9998
2 58702  97.4632 238.0081 0005635  52.2705 307.9043 15.25628966118047
TIANMU-1 18             
1 58703U 24004D   26051.94734282  .00006023  00000+0  23998-3 0  9990
2 58703  97.4649 238.2016 0005053  52.7109 307.4589 15.25583802118042
INSAT-3DS               
1 58990U 24033A   26051.83782711 -.00000150  00000+0  00000+0 0  9999
2 58990   0.0831 266.1985 0002072  78.9360 189.3096  1.00274003 45907
METEOR-M2 4             
1 59051U 24039A   26051.97791064  .00000028  00000+0  32086-4 0  9997
2 59051  98.6874  12.8244 0007671 139.0204 221.1552 14.22414225102744
GOES 19                 
1 60133U 24119A   26051.87429814 -.00000242  00000+0  00000+0 0  9994
2 60133   0.0503 300.2439 0001001  60.4657  29.6313  1.00270175  5792
FENGYUN 3H              
1 65815U 25219A   26051.91338150  .00000060  00000+0  48686-4 0  9999
2 65815  98.6665 355.0099 0001557  73.6525 286.4823 14.19927633 20880
